[{"OBJECT_NAME":"STARLINK-1337","OBJECT_ID":"2020-025BD","EPOCH":"2026-03-09T22:35:33.556704","MEAN_MOTION":15.5811643,"ECCENTRICITY":0.00049353,"INCLINATION":53.0535,"RA_OF_ASC_NODE":60.5346,"ARG_OF_PERICENTER":78.7779,"MEAN_ANOMALY":281.3787,"EPHEMERIS_TYPE":0,"CLASSIFICATION_TYPE":"U","NORAD_CAT_ID":45582,"ELEMENT_SET_NO":999,"REV_AT_EPOCH":32575,"BSTAR":0.00094647262,"MEAN_MOTION_DOT":0.00072727,"MEAN_MOTION_DDOT":0},{"OBJECT_NAME":"BANDWAGON-2 OBJECT S","OBJECT_ID":"2024-247S","EPOCH":"2026-03-08T08:09:41.389632","MEAN_MOTION":15.56877267,"ECCENTRICITY":0.00069951,"INCLINATION":44.9695,"RA_OF_ASC_NODE":87.0884,"ARG_OF_PERICENTER":51.3226,"MEAN_ANOMALY":308.8293,"EPHEMERIS_TYPE":0,"CLASSIFICATION_TYPE":"U","NORAD_CAT_ID":62393,"ELEMENT_SET_NO":999,"REV_AT_EPOCH":6796,"BSTAR":0.001942978,"MEAN_MOTION_DOT":0.00145529,"MEAN_MOTION_DDOT":0}]
